CORAL                   
1 67684U 98067YA  26079.23846071  .00058900  00000+0  82990-3 0  9998
2 67684  51.6315  18.8493 0012105 212.7395 147.2847 15.55968604  6430
GXIBA-1                 
1 67685U 98067YB  26079.21414858  .00030754  00000+0  48661-3 0  9995
2 67685  51.6332  19.4363 0011616 220.6848 139.3275 15.53099580  6422
UITMSAT-2               
1 67686U 98067YC  26079.20424217  .00036971  00000+0  56833-3 0  9992
2 67686  51.6331  19.3725 0008503 189.8163 170.2663 15.53839493  6420
HMU-SAT2                
1 67687U 98067YD  26079.53947399  .00040991  00000+0  65115-3 0  9990
2 67687  51.6329  17.8618 0008258 194.4108 165.6648 15.52885068  6395
LEOPARD                 
1 67688U 98067YE  26079.20876189  .00033610  00000+0  52397-3 0  9991
2 67688  51.6333  19.4024 0008351 190.6023 169.4793 15.53500340  6344
CREW DRAGON 12          
1 67796U 26031A   26079.29132166  .00008293  00000+0  16183-3 0  9994
2 67796  51.6345  19.9496 0006354 211.1385 148.9227 15.48390544557898
